1 44109U 19018AF  22288.78694751  .00031651  00000+0  66744-3 0  9991
2 44109  97.3896  14.4532 0043261  53.4284 307.0934 15.44146262197999